[{"OBJECT_NAME":"AMOS-17","OBJECT_ID":"2019-050A","EPOCH":"2026-03-03T02:10:35.897664","MEAN_MOTION":1.00270347,"ECCENTRICITY":0.0001638,"INCLINATION":0.0378,"RA_OF_ASC_NODE":291.1894,"ARG_OF_PERICENTER":44.0056,"MEAN_ANOMALY":235.2845,"EPHEMERIS_TYPE":0,"CLASSIFICATION_TYPE":"U","NORAD_CAT_ID":44479,"ELEMENT_SET_NO":999,"REV_AT_EPOCH":2412,"BSTAR":0,"MEAN_MOTION_DOT":9.3e-7,"MEAN_MOTION_DDOT":0}]
